{
    "links": {
        "self": "http://www.neowsapp.com/rest/v1/neo/3461188?api_key=iIulBulltgU6a56xZRHN4H3l9WmuAYTsLGpBGhQ2"
    },
    "id": "3461188",
    "neo_reference_id": "3461188",
    "name": "(2009 KD3)",
    "designation": "2009 KD3",
    "nasa_jpl_url": "http://ssd.jpl.nasa.gov/sbdb.cgi?sstr=3461188",
    "absolute_magnitude_h": 21.4,
    "estimated_diameter": {
        "kilometers": {
            "estimated_diameter_min": 0.1394938229,
            "estimated_diameter_max": 0.3119176705
        },
        "meters": {
            "estimated_diameter_min": 139.4938229344,
            "estimated_diameter_max": 311.9176705226
        },
        "miles": {
            "estimated_diameter_min": 0.0866774163,
            "estimated_diameter_max": 0.1938165949
        },
        "feet": {
            "estimated_diameter_min": 457.6569140361,
            "estimated_diameter_max": 1023.3519701574
        }
    },
    "is_potentially_hazardous_asteroid": true,
    "close_approach_data": [
        {
            "close_approach_date": "2009-05-13",
            "close_approach_date_full": "2009-May-13 05:11",
            "epoch_date_close_approach": 1242191460000,
            "relative_velocity": {
                "kilometers_per_second": "19.0596415773",
                "kilometers_per_hour": "68614.7096781835",
                "miles_per_hour": "42634.5122442024"
            },
            "miss_distance": {
                "astronomical": "0.0405944642",
                "lunar": "15.7912465738",
                "kilometers": "6072845.378111254",
                "miles": "3773491.1388491452"
            },
            "orbiting_body": "Earth"
        }
    ],
    "orbital_data": {
        "orbit_id": "9",
        "orbit_determination_date": "2017-04-06 09:00:32",
        "first_observation_date": "2009-05-23",
        "last_observation_date": "2009-05-30",
        "data_arc_in_days": 7,
        "observations_used": 24,
        "orbit_uncertainty": "9",
        "minimum_orbit_intersection": ".0279843",
        "jupiter_tisserand_invariant": "3.340",
        "epoch_osculation": "2454977.5",
        "eccentricity": ".6760578480624337",
        "semi_major_axis": "2.170583112261219",
        "inclination": "7.935282660829923",
        "ascending_node_longitude": "39.29496502626056",
        "orbital_period": "1168.054364454375",
        "perihelion_distance": ".7031433643452393",
        "perihelion_argument": "116.2306443051937",
        "aphelion_distance": "3.638022860177199",
        "perihelion_time": "2454919.516689985446",
        "mean_anomaly": "17.87073636336281",
        "mean_motion": ".3082048327161246",
        "equinox": "J2000",
        "orbit_class": {
            "orbit_class_type": "APO",
            "orbit_class_description": "Near-Earth asteroid orbits which cross the Earth’s orbit similar to that of 1862 Apollo",
            "orbit_class_range": "a (semi-major axis) > 1.0 AU; q (perihelion) < 1.017 AU"
        }
    },
    "is_sentry_object": false
}